[{"OBJECT_NAME":"NUSAT-33 (ALBANIA-2)","OBJECT_ID":"2023-001AQ","EPOCH":"2026-03-09T22:33:27.663264","MEAN_MOTION":15.26923259,"ECCENTRICITY":0.00076854,"INCLINATION":97.3178,"RA_OF_ASC_NODE":131.8399,"ARG_OF_PERICENTER":52.546,"MEAN_ANOMALY":307.6477,"EPHEMERIS_TYPE":0,"CLASSIFICATION_TYPE":"U","NORAD_CAT_ID":55047,"ELEMENT_SET_NO":999,"REV_AT_EPOCH":17716,"BSTAR":0.0004947656,"MEAN_MOTION_DOT":0.00013029,"MEAN_MOTION_DDOT":0},{"OBJECT_NAME":"STARLINK-36396","OBJECT_ID":"2026-012B","EPOCH":"2026-03-09T01:21:07.493472","MEAN_MOTION":15.27601176,"ECCENTRICITY":0.00014579,"INCLINATION":42.9987,"RA_OF_ASC_NODE":318.1145,"ARG_OF_PERICENTER":44.7291,"MEAN_ANOMALY":315.3678,"EPHEMERIS_TYPE":0,"CLASSIFICATION_TYPE":"U","NORAD_CAT_ID":67494,"ELEMENT_SET_NO":999,"REV_AT_EPOCH":766,"BSTAR":0.0011705378,"MEAN_MOTION_DOT":0.0003211,"MEAN_MOTION_DDOT":0}]
